{
  "type": "FeatureCollection",
  "features": [
    {
      "type": "Feature",
      "properties": {
        "norad_id": 34389,
        "name": "COSMOS 2251 DEB",
        "group": "cosmos-2251-debris",
        "lat": 32.55617422791719,
        "lon": 66.99257617212086,
        "alt_km": 765.7721224097331,
        "timestamp": "2025-12-08T13:49:32.188369+00:00",
        "meta_object_name": "COSMOS 2251 DEB",
        "meta_object_id": "1993-036QE",
        "meta_epoch": "2025-12-08T05:31:38.763264",
        "meta_mean_motion": 14.41515638,
        "meta_eccentricity": 0.00287071,
        "meta_inclination": 74.0195,
        "meta_ra_of_asc_node": 258.1754,
        "meta_arg_of_pericenter": 11.0602,
        "meta_mean_anomaly": 141.009,
        "meta_ephemeris_type": 0,
        "meta_classification_type": "U",
        "meta_norad_cat_id": 34389,
        "meta_element_set_no": 999,
        "meta_rev_at_epoch": 87947,
        "meta_bstar": 0.00075624008,
        "meta_mean_motion_dot": 2.443e-05,
        "meta_mean_motion_ddot": 0,
        "tle_line1": "1 34389U 93036QE  25342.23030976  .00002443  00000+0  75624-3 0  9993",
        "tle_line2": "2 34389  74.0195 258.1754 0028707  11.0602 141.0090 14.41515638879479"
      },
      "geometry": {
        "type": "Point",
        "coordinates": [
          66.99257617212086,
          32.55617422791719
        ]
      }
    },
    {
      "type": "Feature",
      "properties": {
        "norad_id": 34396,
        "name": "COSMOS 2251 DEB",
        "group": "cosmos-2251-debris",
        "lat": -57.44783824367414,
        "lon": 105.50860473409827,
        "alt_km": 656.8383591768279,
        "timestamp": "2025-12-08T13:49:32.188379+00:00",
        "meta_object_name": "COSMOS 2251 DEB",
        "meta_object_id": "1993-036QM",
        "meta_epoch": "2025-12-07T20:45:04.775040",
        "meta_mean_motion": 14.74210247,
        "meta_eccentricity": 0.00066482,
        "meta_inclination": 74.0292,
        "meta_ra_of_asc_node": 133.5532,
        "meta_arg_of_pericenter": 177.0937,
        "meta_mean_anomaly": 307.5072,
        "meta_ephemeris_type": 0,
        "meta_classification_type": "U",
        "meta_norad_cat_id": 34396,
        "meta_element_set_no": 999,
        "meta_rev_at_epoch": 88274,
        "meta_bstar": 0.0040944259,
        "meta_mean_motion_dot": 0.00027135,
        "meta_mean_motion_ddot": 0,
        "tle_line1": "1 34396U 93036QM  25341.86463860  .00027135  00000+0  40944-2 0  9992",
        "tle_line2": "2 34396  74.0292 133.5532 0006648 177.0937 307.5072 14.74210247882746"
      },
      "geometry": {
        "type": "Point",
        "coordinates": [
          105.50860473409827,
          -57.44783824367414
        ]
      }
    },
    {
      "type": "Feature",
      "properties": {
        "norad_id": 34400,
        "name": "COSMOS 2251 DEB",
        "group": "cosmos-2251-debris",
        "lat": -15.320288105606185,
        "lon": -142.91488828488284,
        "alt_km": 416.80777383605437,
        "timestamp": "2025-12-08T13:49:32.188389+00:00",
        "meta_object_name": "COSMOS 2251 DEB",
        "meta_object_id": "1993-036QR",
        "meta_epoch": "2025-12-08T05:14:35.071872",
        "meta_mean_motion": 15.50934159,
        "meta_eccentricity": 0.00063058,
        "meta_inclination": 73.9667,
        "meta_ra_of_asc_node": 33.3552,
        "meta_arg_of_pericenter": 270.2782,
        "meta_mean_anomaly": 89.7708,
        "meta_ephemeris_type": 0,
        "meta_classification_type": "U",
        "meta_norad_cat_id": 34400,
        "meta_element_set_no": 999,
        "meta_rev_at_epoch": 89904,
        "meta_bstar": 0.0038150017,
        "meta_mean_motion_dot": 0.00227756,
        "meta_mean_motion_ddot": 0,
        "tle_line1": "1 34400U 93036QR  25342.21846148  .00227756  00000+0  38150-2 0  9999",
        "tle_line2": "2 34400  73.9667  33.3552 0006305 270.2782  89.7708 15.50934159899045"
      },
      "geometry": {
        "type": "Point",
        "coordinates": [
          -142.91488828488284,
          -15.320288105606185
        ]
      }
    },
    {
      "type": "Feature",
      "properties": {
        "norad_id": 34409,
        "name": "COSMOS 2251 DEB",
        "group": "cosmos-2251-debris",
        "lat": 67.72986998088841,
        "lon": -1.0069965334848534,
        "alt_km": 651.9374136626711,
        "timestamp": "2025-12-08T13:49:32.188399+00:00",
        "meta_object_name": "COSMOS 2251 DEB",
        "meta_object_id": "1993-036RA",
        "meta_epoch": "2025-12-08T07:26:23.409888",
        "meta_mean_motion": 14.58010991,
        "meta_eccentricity": 0.00796386,
        "meta_inclination": 74.0629,
        "meta_ra_of_asc_node": 315.2508,
        "meta_arg_of_pericenter": 30.7772,
        "meta_mean_anomaly": 86.8624,
        "meta_ephemeris_type": 0,
        "meta_classification_type": "U",
        "meta_norad_cat_id": 34409,
        "meta_element_set_no": 999,
        "meta_rev_at_epoch": 89128,
        "meta_bstar": 0.00046826351,
        "meta_mean_motion_dot": 2.218e-05,
        "meta_mean_motion_ddot": 0,
        "tle_line1": "1 34409U 93036RA  25342.30999317  .00002218  00000+0  46826-3 0  9999",
        "tle_line2": "2 34409  74.0629 315.2508 0079638  30.7772  86.8624 14.58010991891283"
      },
      "geometry": {
        "type": "Point",
        "coordinates": [
          -1.0069965334848534,
          67.72986998088841
        ]
      }
    },
    {
      "type": "Feature",
      "properties": {
        "norad_id": 34410,
        "name": "COSMOS 2251 DEB",
        "group": "cosmos-2251-debris",
        "lat": -68.26604825370516,
        "lon": -136.46042464107947,
        "alt_km": 531.9668179869714,
        "timestamp": "2025-12-08T13:49:32.188409+00:00",
        "meta_object_name": "COSMOS 2251 DEB",
        "meta_object_id": "1993-036RB",
        "meta_epoch": "2025-12-07T19:19:01.043616",
        "meta_mean_motion": 15.18216238,
        "meta_eccentricity": 0.00208826,
        "meta_inclination": 73.7396,
        "meta_ra_of_asc_node": 272.2499,
        "meta_arg_of_pericenter": 114.4201,
        "meta_mean_anomaly": 276.7771,
        "meta_ephemeris_type": 0,
        "meta_classification_type": "U",
        "meta_norad_cat_id": 34410,
        "meta_element_set_no": 999,
        "meta_rev_at_epoch": 89699,
        "meta_bstar": 0.0039922688,
        "meta_mean_motion_dot": 0.00083069,
        "meta_mean_motion_ddot": 0,
        "tle_line1": "1 34410U 93036RB  25341.80487319  .00083069  00000+0  39923-2 0  9991",
        "tle_line2": "2 34410  73.7396 272.2499 0020882 114.4201 276.7771 15.18216238896992"
      },
      "geometry": {
        "type": "Point",
        "coordinates": [
          -136.46042464107947,
          -68.26604825370516
        ]
      }
    },
    {
      "type": "Feature",
      "properties": {
        "norad_id": 34412,
        "name": "COSMOS 2251 DEB",
        "group": "cosmos-2251-debris",
        "lat": 73.75846308529674,
        "lon": 53.649635331528856,
        "alt_km": 601.7490985652848,
        "timestamp": "2025-12-08T13:49:32.188421+00:00",
        "meta_object_name": "COSMOS 2251 DEB",
        "meta_object_id": "1993-036RD",
        "meta_epoch": "2025-12-08T00:09:40.938048",
        "meta_mean_motion": 14.47056732,
        "meta_eccentricity": 0.01871335,
        "meta_inclination": 73.9493,
        "meta_ra_of_asc_node": 333.5101,
        "meta_arg_of_pericenter": 69.6933,
        "meta_mean_anomaly": 292.4225,
        "meta_ephemeris_type": 0,
        "meta_classification_type": "U",
        "meta_norad_cat_id": 34412,
        "meta_element_set_no": 999,
        "meta_rev_at_epoch": 87582,
        "meta_bstar": 0.0013766178,
        "meta_mean_motion_dot": 6.219e-05,
        "meta_mean_motion_ddot": 0,
        "tle_line1": "1 34412U 93036RD  25342.00672382  .00006219  00000+0  13766-2 0  9991",
        "tle_line2": "2 34412  73.9493 333.5101 0187133  69.6933 292.4225 14.47056732875821"
      },
      "geometry": {
        "type": "Point",
        "coordinates": [
          53.649635331528856,
          73.75846308529674
        ]
      }
    },
    {
      "type": "Feature",
      "properties": {
        "norad_id": 34413,
        "name": "COSMOS 2251 DEB",
        "group": "cosmos-2251-debris",
        "lat": 47.998037541500956,
        "lon": 73.89951050812118,
        "alt_km": 839.6737275864762,
        "timestamp": "2025-12-08T13:49:32.188431+00:00",
        "meta_object_name": "COSMOS 2251 DEB",
        "meta_object_id": "1993-036RE",
        "meta_epoch": "2025-12-08T05:23:43.785312",
        "meta_mean_motion": 14.29040555,
        "meta_eccentricity": 0.00908211,
        "meta_inclination": 74.0321,
        "meta_ra_of_asc_node": 273.0774,
        "meta_arg_of_pericenter": 350.3905,
        "meta_mean_anomaly": 131.9156,
        "meta_ephemeris_type": 0,
        "meta_classification_type": "U",
        "meta_norad_cat_id": 34413,
        "meta_element_set_no": 999,
        "meta_rev_at_epoch": 87066,
        "meta_bstar": 0.0025035214,
        "meta_mean_motion_dot": 6.606e-05,
        "meta_mean_motion_ddot": 0,
        "tle_line1": "1 34413U 93036RE  25342.22481233  .00006606  00000+0  25035-2 0  9991",
        "tle_line2": "2 34413  74.0321 273.0774 0090821 350.3905 131.9156 14.29040555870667"
      },
      "geometry": {
        "type": "Point",
        "coordinates": [
          73.89951050812118,
          47.998037541500956
        ]
      }
    }
  ]
}